     2.11           N: GPS NAV DATA                         RINEX VERSION / TYPE
gfzrnx-1.10-7329    FILE CONVERSION     20181101 070014 UTC PGM / RUN BY / DATE 
Concatenated RINEX files (5)                                COMMENT             
                                                            END OF HEADER
03 18 10 31 10 00  0.0 1.552142202854e-04 4.206412995700e-12 0.000000000000e+00
    1.060000000000e+02-3.903125000000e+01 4.501973460691e-09-4.987461654083e-02
   -2.080574631691e-06 1.844390644692e-03 1.043640077114e-05 5.153650812149e+03
    2.952000000000e+05-5.587935447693e-09 1.821040610862e+00 5.774199962616e-08
    9.614379116110e-01 1.759687500000e+02 6.971528499574e-01-7.957474679188e-09
    1.860791798425e-10 1.000000000000e+00 2.025000000000e+03 0.000000000000e+00
    2.800000000000e+00 0.000000000000e+00 2.328306436539e-09 1.060000000000e+02
    2.879400000000e+05 0.000000000000e+00 0.000000000000e+00 0.000000000000e+00
03 18 10 31 11 59 44.0 1.552449539304e-04 4.206412995700e-12 0.000000000000e+00
    1.700000000000e+01-3.362500000000e+01 4.500901873428e-09 9.981523599551e-01
   -1.763924956322e-06 1.844741171226e-03 1.029856503010e-05 5.153651147842e+03
    3.023840000000e+05-6.146728992462e-08 1.820983805753e+00 2.048909664154e-08
    9.614391375363e-01 1.797812500000e+02 6.969859895212e-01-7.936044710277e-09
    1.357199352903e-10 1.000000000000e+00 2.025000000000e+03 0.000000000000e+00
    2.000000000000e+00 0.000000000000e+00 2.328306436539e-09 1.700000000000e+01
    2.951100000000e+05 0.000000000000e+00 0.000000000000e+00 0.000000000000e+00
03 18 10 31 14 00  0.0 1.552756875753e-04 4.206412995700e-12 0.000000000000e+00
    1.800000000000e+01-3.862500000000e+01 4.487329618996e-09 2.050401777384e+00
   -2.071261405945e-06 1.844354323111e-03 1.007504761219e-05 5.153652088165e+03
    3.096000000000e+05-6.519258022308e-08 1.820926490086e+00-2.793967723846e-08
    9.614401864486e-01 1.847812500000e+02 6.972651801221e-01-7.912472455018e-09
    1.442917313410e-10 1.000000000000e+00 2.025000000000e+03 0.000000000000e+00
    2.000000000000e+00 0.000000000000e+00 2.328306436539e-09 1.800000000000e+01
    3.023400000000e+05 0.000000000000e+00 0.000000000000e+00 0.000000000000e+00
03 18 10 31 16 00  0.0 1.553059555590e-04 4.206412995700e-12 0.000000000000e+00
    4.300000000000e+01-4.537500000000e+01 4.482329618583e-09 3.100393603541e+00
   -2.406537532806e-06 1.844633719884e-03 9.991228580475e-06 5.153652015686e+03
    3.168000000000e+05-3.352761268616e-08 1.820869579647e+00-6.332993507385e-08
    9.614413172843e-01 1.863750000000e+02 6.974666371079e-01-7.899257248312e-09
    1.535778310080e-10 1.000000000000e+00 2.025000000000e+03 0.000000000000e+00
    2.000000000000e+00 0.000000000000e+00 2.328306436539e-09 4.300000000000e+01
    3.095400000000e+05 0.000000000000e+00 0.000000000000e+00 0.000000000000e+00
03 18 10 31 18 00  0.0 1.553366892040e-04 4.206412995700e-12 0.000000000000e+00
    4.500000000000e+01-5.468750000000e+01 4.565904473960e-09-2.132585040650e+00
   -2.799555659290e-06 1.845605322160e-03 1.010857522490e-05 5.153650419240e+03
    3.240000000000e+05 8.940696716310e-08 1.820811926050e+00 1.862645149230e-09
    9.614426426880e-01 1.857812500000e+02 6.974556037800e-01-7.948545374530e-09
    2.596536727610e-10 1.000000000000e+00 2.025000000000e+03 0.000000000000e+00
    2.400000000000e+00 0.000000000000e+00 2.328306436540e-09 4.500000000000e+01
    3.168180000000e+05 4.000000000000e+00 0.000000000000e+00 0.000000000000e+00
03 18 10 31 22 00  0.0 1.553972251713e-04 4.206412995700e-12 0.000000000000e+00
    9.700000000000e+01-5.331250000000e+01 4.484115352832e-09-3.207000967320e-02
   -2.741813659668e-06 1.844935817644e-03 1.100823283195e-05 5.153651250839e+03
    3.384000000000e+05 2.421438694000e-08 1.820697473186e+00 6.146728992462e-08
    9.614467754316e-01 1.715937500000e+02 6.973296728656e-01-7.938187800242e-09
    2.832260832175e-10 1.000000000000e+00 2.025000000000e+03 0.000000000000e+00
    2.000000000000e+00 0.000000000000e+00 2.328306436539e-09 9.700000000000e+01
    3.367080000000e+05 4.000000000000e+00 0.000000000000e+00 0.000000000000e+00
04 18 10 31 00 00  0.0-1.570815220475e-05-2.501110429876e-11 0.000000000000e+00
    1.030000000000e+02 4.968750000000e+00 4.485901141503e-09-1.814154264864e+00
    3.241002559662e-07 1.362154842354e-02 3.714114427567e-06 5.153675422668e+03
    2.592000000000e+05 1.061707735062e-07-3.743368938456e-01-1.415610313416e-07
    9.590261346251e-01 3.063750000000e+02 5.733979387257e-01-8.177126324419e-09
    1.396486740707e-10 1.000000000000e+00 2.025000000000e+03 0.000000000000e+00
    2.000000000000e+00 6.300000000000e+01-5.587935447693e-09 1.030000000000e+02
    2.578020000000e+05 4.000000000000e+00 0.000000000000e+00 0.000000000000e+00
04 18 10 31 02 00  0.0-1.588836312294e-05-2.501110429876e-11 0.000000000000e+00
    1.040000000000e+02 1.915625000000e+01 4.732339978098e-09-7.641142223902e-01
    9.946525096893e-07 1.362084527500e-02 3.855675458908e-06 5.153671535492e+03
    2.664000000000e+05 2.551823854446e-07-3.743953213308e-01 2.197921276093e-07
    9.590254412019e-01 3.026875000000e+02 5.735384432297e-01-8.477495978878e-09
   -4.857345185067e-11 1.000000000000e+00 2.025000000000e+03 0.000000000000e+00
    2.000000000000e+00 6.300000000000e+01-5.587935447693e-09 1.040000000000e+02
    2.592180000000e+05 4.000000000000e+00 0.000000000000e+00 0.000000000000e+00
04 18 10 31 04 00  0.0-1.606810837984e-05-2.501110429876e-11 0.000000000000e+00
    1.050000000000e+02 2.662500000000e+01 4.848059083978e-09 2.860710395728e-01
    1.477077603340e-06 1.362191350199e-02 3.555789589882e-06 5.153673521042e+03
    2.736000000000e+05 1.676380634308e-08-3.744574924233e-01 1.527369022369e-07
    9.590243323100e-01 3.064375000000e+02 5.735372933761e-01-8.672861259484e-09
   -3.321566928024e-11 1.000000000000e+00 2.025000000000e+03 0.000000000000e+00
    2.000000000000e+00 6.300000000000e+01-5.587935447693e-09 1.050000000000e+02
    2.685360000000e+05 4.000000000000e+00 0.000000000000e+00 0.000000000000e+00
04 18 10 31 06 00  0.0-1.624785363674e-05-2.501110429876e-11 0.000000000000e+00
    1.060000000000e+02 2.943750000000e+01 4.896275378094e-09 1.336282468751e+00
    1.663342118263e-06 1.362189929932e-02 3.641471266747e-06 5.153672973633e+03
    2.808000000000e+05-1.005828380585e-07-3.745196664417e-01 1.881271600723e-07
    9.590239446367e-01 3.096250000000e+02 5.735091599985e-01-8.635002539659e-09
   -4.607334771129e-11 1.000000000000e+00 2.025000000000e+03 0.000000000000e+00
    2.000000000000e+00 6.300000000000e+01-5.587935447693e-09 1.060000000000e+02
    2.736180000000e+05 4.000000000000e+00 0.000000000000e+00 0.000000000000e+00
04 18 10 31 08 00  0.0-1.642759889364e-05-2.489741746103e-11 0.000000000000e+00
    1.070000000000e+02 2.600000000000e+01 4.727339769819e-09 2.386432159861e+00
    1.270323991776e-06 1.362167985644e-02 3.548339009285e-06 5.153673898697e+03
    2.880000000000e+05-2.551823854446e-07-3.745822764096e-01-2.514570951462e-07
    9.590257718214e-01 3.116250000000e+02 5.735437594740e-01-8.276416174526e-09
    1.785788670980e-10 1.000000000000e+00 2.025000000000e+03 0.000000000000e+00
    2.000000000000e+00 6.300000000000e+01-5.587935447693e-09 1.070000000000e+02
    2.808180000000e+05 4.000000000000e+00 0.000000000000e+00 0.000000000000e+00
04 18 10 31 10 00  0.0-1.660687848926e-05-2.489741746103e-11 0.000000000000e+00
    1.080000000000e+02 2.062500000000e+01 4.686266630387e-09-2.846549108802e+00
    9.629875421524e-07 1.362284563947e-02 3.896653652191e-06 5.153671674728e+03
    2.952000000000e+05-4.097819328308e-08-3.746411296040e-01-2.328306436539e-07
    9.590275887657e-01 3.047187500000e+02 5.735224111105e-01-8.154982544899e-09
    1.853648640478e-10 1.000000000000e+00 2.025000000000e+03 0.000000000000e+00
    2.000000000000e+00 6.300000000000e+01-5.587935447693e-09 1.080000000000e+02
    2.880180000000e+05 4.000000000000e+00 0.000000000000e+00 0.000000000000e+00
04 18 10 31 12 00  0.0-1.678662374616e-05-2.489741746103e-11 0.000000000000e+00
    1.090000000000e+02 2.406250000000e+01 4.628407077447e-09-1.796282126772e+00
    1.087784767151e-06 1.362182421144e-02 4.248693585396e-06 5.153674535751e+03
    3.024000000000e+05 1.490116119385e-07-3.747010170814e-01-1.210719347000e-07
    9.590294598379e-01 2.940000000000e+02 5.734383298939e-01-8.218199463852e-09
    3.410856361573e-10 1.000000000000e+00 2.025000000000e+03 0.000000000000e+00
    2.000000000000e+00 6.300000000000e+01-5.587935447693e-09 1.090000000000e+02
    2.952180000000e+05 4.000000000000e+00 0.000000000000e+00 0.000000000000e+00
04 18 10 31 14 00  0.0-1.696590334177e-05-2.489741746103e-11 0.000000000000e+00
    1.110000000000e+02 3.343750000000e+01 4.715196406857e-09-7.461938080015e-01
    1.922249794006e-06 1.362120092381e-02 4.531815648079e-06 5.153671871185e+03
    3.096000000000e+05 2.421438694000e-07-3.747598746645e-01 1.788139343262e-07
    9.590306243207e-01 2.892187500000e+02 5.735313378366e-01-8.452852095219e-09
    2.028655930234e-10 1.000000000000e+00 2.025000000000e+03 0.000000000000e+00
    2.800000000000e+00 6.300000000000e+01-5.587935447693e-09 1.110000000000e+02
    3.024180000000e+05 4.000000000000e+00 0.000000000000e+00 0.000000000000e+00
04 18 10 31 15 59 44.0-1.714006066322e-05-2.489741746103e-11 0.000000000000e+00
    6.200000000000e+01 4.178125000000e+01 4.686980945855e-09 3.016471101844e-01
    2.220273017883e-06 1.362225192133e-02 4.617497324944e-06 5.153673793793e+03
    3.167840000000e+05 4.097819328308e-08-3.748212045791e-01 1.918524503708e-07
    9.590316234937e-01 2.913750000000e+02 5.735399310174e-01-8.558213626807e-09
    1.885792836555e-10 1.000000000000e+00 2.025000000000e+03 0.000000000000e+00
    2.000000000000e+00 6.300000000000e+01-5.587935447693e-09 6.200000000000e+01
    3.153960000000e+05 4.000000000000e+00 0.000000000000e+00 0.000000000000e+00
